{
    "links": {
        "self": "http://www.neowsapp.com/rest/v1/neo/3559546?api_key=iIulBulltgU6a56xZRHN4H3l9WmuAYTsLGpBGhQ2"
    },
    "id": "3559546",
    "neo_reference_id": "3559546",
    "name": "(2011 EV29)",
    "designation": "2011 EV29",
    "nasa_jpl_url": "http://ssd.jpl.nasa.gov/sbdb.cgi?sstr=3559546",
    "absolute_magnitude_h": 24.1,
    "estimated_diameter": {
        "kilometers": {
            "estimated_diameter_min": 0.040230458,
            "estimated_diameter_max": 0.0899580388
        },
        "meters": {
            "estimated_diameter_min": 40.2304579834,
            "estimated_diameter_max": 89.9580388169
        },
        "miles": {
            "estimated_diameter_min": 0.0249980399,
            "estimated_diameter_max": 0.0558973165
        },
        "feet": {
            "estimated_diameter_min": 131.9896957704,
            "estimated_diameter_max": 295.1379320721
        }
    },
    "is_potentially_hazardous_asteroid": false,
    "close_approach_data": [
        {
            "close_approach_date": "2011-03-01",
            "close_approach_date_full": "2011-Mar-01 13:06",
            "epoch_date_close_approach": 1298984760000,
            "relative_velocity": {
                "kilometers_per_second": "10.7098252847",
                "kilometers_per_hour": "38555.3710250143",
                "miles_per_hour": "23956.808179404"
            },
            "miss_distance": {
                "astronomical": "0.0210148168",
                "lunar": "8.1747637352",
                "kilometers": "3143771.831720216",
                "miles": "1953449.2335863408"
            },
            "orbiting_body": "Earth"
        },
        {
            "close_approach_date": "2014-03-09",
            "close_approach_date_full": "2014-Mar-09 23:36",
            "epoch_date_close_approach": 1394408160000,
            "relative_velocity": {
                "kilometers_per_second": "14.3534682151",
                "kilometers_per_hour": "51672.4855743074",
                "miles_per_hour": "32107.2730503245"
            },
            "miss_distance": {
                "astronomical": "0.1456332053",
                "lunar": "56.6513168617",
                "kilometers": "21786417.314152711",
                "miles": "13537451.9790249718"
            },
            "orbiting_body": "Earth"
        },
        {
            "close_approach_date": "2017-02-02",
            "close_approach_date_full": "2017-Feb-02 19:14",
            "epoch_date_close_approach": 1486062840000,
            "relative_velocity": {
                "kilometers_per_second": "5.5837147271",
                "kilometers_per_hour": "20101.3730176676",
                "miles_per_hour": "12490.2114731168"
            },
            "miss_distance": {
                "astronomical": "0.1210497421",
                "lunar": "47.0883496769",
                "kilometers": "18108783.582209327",
                "miles": "11252276.3429976326"
            },
            "orbiting_body": "Venus"
        }
    ],
    "orbital_data": {
        "orbit_id": "9",
        "orbit_determination_date": "2017-04-06 08:54:12",
        "first_observation_date": "2011-03-09",
        "last_observation_date": "2011-03-25",
        "data_arc_in_days": 16,
        "observations_used": 38,
        "orbit_uncertainty": "8",
        "minimum_orbit_intersection": ".00826165",
        "jupiter_tisserand_invariant": "4.879",
        "epoch_osculation": "2455634.5",
        "eccentricity": ".3761877720796262",
        "semi_major_axis": "1.3162347585096",
        "inclination": "6.521464932995738",
        "ascending_node_longitude": "334.831455930262",
        "orbital_period": "551.5672351058396",
        "perihelion_distance": ".8210833371721087",
        "perihelion_argument": "116.4948921045695",
        "aphelion_distance": "1.811386179847092",
        "perihelion_time": "2455572.033401099122",
        "mean_anomaly": "40.77105051390677",
        "mean_motion": ".6526856148932053",
        "equinox": "J2000",
        "orbit_class": {
            "orbit_class_type": "APO",
            "orbit_class_description": "Near-Earth asteroid orbits which cross the Earth’s orbit similar to that of 1862 Apollo",
            "orbit_class_range": "a (semi-major axis) > 1.0 AU; q (perihelion) < 1.017 AU"
        }
    },
    "is_sentry_object": false
}